{
  "type": "FeatureCollection",
  "features": [
    {
      "type": "Feature",
      "properties": {
        "norad_id": 40069,
        "name": "METEOR-M 2",
        "group": "weather",
        "lat": -31.693078220652684,
        "lon": -21.851917385015287,
        "alt_km": 829.9048708065557,
        "timestamp": "2025-12-21T14:40:47.553055+00:00",
        "meta_object_name": "METEOR-M 2",
        "meta_object_id": "2014-037A",
        "meta_epoch": "2025-12-21T06:23:00.354048",
        "meta_mean_motion": 14.21390936,
        "meta_eccentricity": 0.00054087,
        "meta_inclination": 98.4904,
        "meta_ra_of_asc_node": 332.5237,
        "meta_arg_of_pericenter": 182.651,
        "meta_mean_anomaly": 177.464,
        "meta_ephemeris_type": 0,
        "meta_classification_type": "U",
        "meta_norad_cat_id": 40069,
        "meta_element_set_no": 999,
        "meta_rev_at_epoch": 59404,
        "meta_bstar": 0.00022259751,
        "meta_mean_motion_dot": 4.44e-06,
        "meta_mean_motion_ddot": 0,
        "tle_line1": "1 40069U 14037A   25355.26597632  .00000444  00000+0  22260-3 0  9990",
        "tle_line2": "2 40069  98.4904 332.5237 0005408 182.6510 177.4640 14.21390936594049"
      },
      "geometry": {
        "type": "Point",
        "coordinates": [
          -21.851917385015287,
          -31.693078220652684
        ]
      }
    },
    {
      "type": "Feature",
      "properties": {
        "norad_id": 40267,
        "name": "HIMAWARI-8",
        "group": "weather",
        "lat": 0.013297525404033448,
        "lon": 91.28744557542576,
        "alt_km": 35789.78071153469,
        "timestamp": "2025-12-21T14:40:47.553067+00:00",
        "meta_object_name": "HIMAWARI-8",
        "meta_object_id": "2014-060A",
        "meta_epoch": "2025-12-21T05:18:22.225248",
        "meta_mean_motion": 1.00270732,
        "meta_eccentricity": 8.781e-05,
        "meta_inclination": 0.039,
        "meta_ra_of_asc_node": 135.3525,
        "meta_arg_of_pericenter": 161.3274,
        "meta_mean_anomaly": 13.6225,
        "meta_ephemeris_type": 0,
        "meta_classification_type": "U",
        "meta_norad_cat_id": 40267,
        "meta_element_set_no": 999,
        "meta_rev_at_epoch": 4097,
        "meta_bstar": 0,
        "meta_mean_motion_dot": -2.53e-06,
        "meta_mean_motion_ddot": 0,
        "tle_line1": "1 40267U 14060A   25355.22109057 -.00000253  00000+0  00000+0 0  9995",
        "tle_line2": "2 40267   0.0390 135.3525 0000878 161.3274  13.6225  1.00270732 40975"
      },
      "geometry": {
        "type": "Point",
        "coordinates": [
          91.28744557542576,
          0.013297525404033448
        ]
      }
    },
    {
      "type": "Feature",
      "properties": {
        "norad_id": 40367,
        "name": "FENGYUN 2G",
        "group": "weather",
        "lat": -2.184683238550802,
        "lon": 49.97265740851934,
        "alt_km": 35796.854121996155,
        "timestamp": "2025-12-21T14:40:47.553080+00:00",
        "meta_object_name": "FENGYUN 2G",
        "meta_object_id": "2014-090A",
        "meta_epoch": "2025-12-21T01:41:07.810656",
        "meta_mean_motion": 1.00261103,
        "meta_eccentricity": 0.00026608,
        "meta_inclination": 5.188,
        "meta_ra_of_asc_node": 75.0029,
        "meta_arg_of_pericenter": 203.8012,
        "meta_mean_anomaly": 295.6309,
        "meta_ephemeris_type": 0,
        "meta_classification_type": "U",
        "meta_norad_cat_id": 40367,
        "meta_element_set_no": 999,
        "meta_rev_at_epoch": 4021,
        "meta_bstar": 0,
        "meta_mean_motion_dot": -2.79e-06,
        "meta_mean_motion_ddot": 0,
        "tle_line1": "1 40367U 14090A   25355.07022929 -.00000279  00000+0  00000+0 0  9992",
        "tle_line2": "2 40367   5.1880  75.0029 0002660 203.8012 295.6309  1.00261103 40212"
      },
      "geometry": {
        "type": "Point",
        "coordinates": [
          49.97265740851934,
          -2.184683238550802
        ]
      }
    },
    {
      "type": "Feature",
      "properties": {
        "norad_id": 40732,
        "name": "METEOSAT-11 (MSG-4)",
        "group": "weather",
        "lat": -2.5737553404060503,
        "lon": -40.19808579408627,
        "alt_km": 35788.08327086217,
        "timestamp": "2025-12-21T14:40:47.553092+00:00",
        "meta_object_name": "METEOSAT-11 (MSG-4)",
        "meta_object_id": "2015-034A",
        "meta_epoch": "2025-12-21T02:58:07.934880",
        "meta_mean_motion": 1.00270116,
        "meta_eccentricity": 8.178e-05,
        "meta_inclination": 2.7571,
        "meta_ra_of_asc_node": 71.9801,
        "meta_arg_of_pericenter": 136.5122,
        "meta_mean_anomaly": 295.1851,
        "meta_ephemeris_type": 0,
        "meta_classification_type": "U",
        "meta_norad_cat_id": 40732,
        "meta_element_set_no": 999,
        "meta_rev_at_epoch": 543,
        "meta_bstar": 0,
        "meta_mean_motion_dot": 8.2e-07,
        "meta_mean_motion_ddot": 0,
        "tle_line1": "1 40732U 15034A   25355.12370295  .00000082  00000+0  00000+0 0  9996",
        "tle_line2": "2 40732   2.7571  71.9801 0000817 136.5122 295.1851  1.00270116  5433"
      },
      "geometry": {
        "type": "Point",
        "coordinates": [
          -40.19808579408627,
          -2.5737553404060503
        ]
      }
    },
    {
      "type": "Feature",
      "properties": {
        "norad_id": 41105,
        "name": "ELEKTRO-L 2",
        "group": "weather",
        "lat": -4.315556145718558,
        "lon": -64.00749098426253,
        "alt_km": 35772.085396540286,
        "timestamp": "2025-12-21T14:40:47.553104+00:00",
        "meta_object_name": "ELEKTRO-L 2",
        "meta_object_id": "2015-074A",
        "meta_epoch": "2025-12-21T01:08:40.917984",
        "meta_mean_motion": 1.00272505,
        "meta_eccentricity": 0.00035096,
        "meta_inclination": 6.2453,
        "meta_ra_of_asc_node": 72.7296,
        "meta_arg_of_pericenter": 208.7626,
        "meta_mean_anomaly": 171.0759,
        "meta_ephemeris_type": 0,
        "meta_classification_type": "U",
        "meta_norad_cat_id": 41105,
        "meta_element_set_no": 999,
        "meta_rev_at_epoch": 3672,
        "meta_bstar": 0,
        "meta_mean_motion_dot": -9.8e-07,
        "meta_mean_motion_ddot": 0,
        "tle_line1": "1 41105U 15074A   25355.04769581 -.00000098  00000+0  00000+0 0  9994",
        "tle_line2": "2 41105   6.2453  72.7296 0003509 208.7626 171.0759  1.00272505 36724"
      },
      "geometry": {
        "type": "Point",
        "coordinates": [
          -64.00749098426253,
          -4.315556145718558
        ]
      }
    },
    {
      "type": "Feature",
      "properties": {
        "norad_id": 41752,
        "name": "INSAT-3DR",
        "group": "weather",
        "lat": -0.08713347788762502,
        "lon": 24.757353544254194,
        "alt_km": 35809.60755007813,
        "timestamp": "2025-12-21T14:40:47.553117+00:00",
        "meta_object_name": "INSAT-3DR",
        "meta_object_id": "2016-054A",
        "meta_epoch": "2025-12-20T23:51:13.480128",
        "meta_mean_motion": 1.00271576,
        "meta_eccentricity": 0.00141406,
        "meta_inclination": 0.1118,
        "meta_ra_of_asc_node": 86.3316,
        "meta_arg_of_pericenter": 185.3117,
        "meta_mean_anomaly": 249.9717,
        "meta_ephemeris_type": 0,
        "meta_classification_type": "U",
        "meta_norad_cat_id": 41752,
        "meta_element_set_no": 999,
        "meta_rev_at_epoch": 3403,
        "meta_bstar": 0,
        "meta_mean_motion_dot": -5.4e-07,
        "meta_mean_motion_ddot": 0,
        "tle_line1": "1 41752U 16054A   25354.99390602 -.00000054  00000+0  00000+0 0  9990",
        "tle_line2": "2 41752   0.1118  86.3316 0014140 185.3117 249.9717  1.00271576 34033"
      },
      "geometry": {
        "type": "Point",
        "coordinates": [
          24.757353544254194,
          -0.08713347788762502
        ]
      }
    },
    {
      "type": "Feature",
      "properties": {
        "norad_id": 41836,
        "name": "HIMAWARI-9",
        "group": "weather",
        "lat": 0.043576923677341194,
        "lon": 91.39090366896977,
        "alt_km": 35789.25404392284,
        "timestamp": "2025-12-21T14:40:47.553129+00:00",
        "meta_object_name": "HIMAWARI-9",
        "meta_object_id": "2016-064A",
        "meta_epoch": "2025-12-21T05:18:29.712672",
        "meta_mean_motion": 1.00270214,
        "meta_eccentricity": 0.00014249,
        "meta_inclination": 0.017,
        "meta_ra_of_asc_node": 10.5983,
        "meta_arg_of_pericenter": 324.2544,
        "meta_mean_anomaly": 335.575,
        "meta_ephemeris_type": 0,
        "meta_classification_type": "U",
        "meta_norad_cat_id": 41836,
        "meta_element_set_no": 999,
        "meta_rev_at_epoch": 3342,
        "meta_bstar": 0,
        "meta_mean_motion_dot": 0,
        "meta_mean_motion_ddot": 0,
        "tle_line1": "1 41836U 16064A   25355.22117723  .00000000  00000+0  00000+0 0  9992",
        "tle_line2": "2 41836   0.0170  10.5983 0001424 324.2544 335.5750  1.00270214 33420"
      },
      "geometry": {
        "type": "Point",
        "coordinates": [
          91.39090366896977,
          0.043576923677341194
        ]
      }
    }
  ]
}